{"type": "FeatureCollection", "features": [ {"type": "Feature", "properties": {"norad_id": 30467, "name": "FENGYUN 1C DEB", "group": "fengyun-1c-debris", "lat": 8.960345068194218, "lon": -168.4139794062156, "alt_km": 796.0763865749686, "timestamp": "2025-12-08T13:49:32.069275+00:00", "meta": {"OBJECT_NAME": "FENGYUN 1C DEB", "OBJECT_ID": "1999-025AGE", "EPOCH": "2025-12-08T01:17:52.943136", "MEAN_MOTION": 14.17250278, "ECCENTRICITY": 0.0065342, "INCLINATION": 98.679, "RA_OF_ASC_NODE": 9.6964, "ARG_OF_PERICENTER": 140.7692, "MEAN_ANOMALY": 247.959, "EPHEMERIS_TYPE": 0, "CLASSIFICATION_TYPE": "U", "NORAD_CAT_ID": 30467, "ELEMENT_SET_NO": 999, "REV_AT_EPOCH": 97111, "BSTAR": 0.0011550423, "MEAN_MOTION_DOT": 2.339e-05, "MEAN_MOTION_DDOT": 0}, "tle": {"line1": "1 30467U 99025AGE 25342.05408499  .00002339  00000+0  11550-2 0  9990", "line2": "2 30467  98.6790   9.6964 0065342 140.7692 247.9590 14.17250278971116"}}, "geometry": {"type": "Point", "coordinates": [-168.4139794062156, 8.960345068194218]}}, {"type": "Feature", "properties": {"norad_id": 30468, "name": "FENGYUN 1C DEB", "group": "fengyun-1c-debris", "lat": 67.42955348912923, "lon": 41.82737354686717, "alt_km": 766.7116505307722, "timestamp": "2025-12-08T13:49:32.069299+00:00", "meta": {"OBJECT_NAME": "FENGYUN 1C DEB", "OBJECT_ID": "1999-025AGF", "EPOCH": "2025-12-08T05:21:18.222912", "MEAN_MOTION": 14.20666236, "ECCENTRICITY": 0.00722486, "INCLINATION": 98.922, "RA_OF_ASC_NODE": 63.6769, "ARG_OF_PERICENTER": 53.1593, "MEAN_ANOMALY": 11.7655, "EPHEMERIS_TYPE": 0, "CLASSIFICATION_TYPE": "U", "NORAD_CAT_ID": 30468, "ELEMENT_SET_NO": 999, "REV_AT_EPOCH": 96746, "BSTAR": 0.0020172818, "MEAN_MOTION_DOT": 4.418e-05, "MEAN_MOTION_DDOT": 0}, "tle": {"line1": "1 30468U 99025AGF 25342.22312758  .00004418  00000+0  20173-2 0  9993", "line2": "2 30468  98.9220  63.6769 0072248  53.1593  11.7655 14.20666236967462"}}, "geometry": {"type": "Point", "coordinates": [41.82737354686717, 67.42955348912923]}}, {"type": "Feature", "properties": {"norad_id": 30469, "name": "FENGYUN 1C DEB", "group": "fengyun-1c-debris", "lat": 56.58682713366183, "lon": -179.46286827585868, "alt_km": 963.536525972474, "timestamp": "2025-12-08T13:49:32.069311+00:00", "meta": {"OBJECT_NAME": "FENGYUN 1C DEB", "OBJECT_ID": "1999-025AGG", "EPOCH": "2025-12-07T13:36:12.701952", "MEAN_MOTION": 13.96493133, "ECCENTRICITY": 0.01585996, "INCLINATION": 98.4783, "RA_OF_ASC_NODE": 192.6739, "ARG_OF_PERICENTER": 184.2568, "MEAN_ANOMALY": 203.8012, "EPHEMERIS_TYPE": 0, "CLASSIFICATION_TYPE": "U", "NORAD_CAT_ID": 30469, "ELEMENT_SET_NO": 999, "REV_AT_EPOCH": 95634, "BSTAR": 0.0011909321, "MEAN_MOTION_DOT": 1.791e-05, "MEAN_MOTION_DDOT": 0}, "tle": {"line1": "1 30469U 99025AGG 25341.56681368  .00001791  00000+0  11909-2 0  9994", "line2": "2 30469  98.4783 192.6739 0158599 184.2568 203.8012 13.96493133956346"}}, "geometry": {"type": "Point", "coordinates": [-179.46286827585868, 56.58682713366183]}}, {"type": "Feature", "properties": {"norad_id": 30471, "name": "FENGYUN 1C DEB", "group": "fengyun-1c-debris", "lat": -73.54644129007069, "lon": -142.55418289415297, "alt_km": 795.8103358466051, "timestamp": "2025-12-08T13:49:32.069322+00:00", "meta": {"OBJECT_NAME": "FENGYUN 1C DEB", "OBJECT_ID": "1999-025AGJ", "EPOCH": "2025-12-07T16:58:06.521952", "MEAN_MOTION": 14.13576891, "ECCENTRICITY": 0.00820645, "INCLINATION": 99.0544, "RA_OF_ASC_NODE": 69.2452, "ARG_OF_PERICENTER": 267.5978, "MEAN_ANOMALY": 248.6937, "EPHEMERIS_TYPE": 0, "CLASSIFICATION_TYPE": "U", "NORAD_CAT_ID": 30471, "ELEMENT_SET_NO": 999, "REV_AT_EPOCH": 96371, "BSTAR": 0.0030707594, "MEAN_MOTION_DOT": 5.935e-05, "MEAN_MOTION_DDOT": 0}, "tle": {"line1": "1 30471U 99025AGJ 25341.70701993  .00005935  00000+0  30708-2 0  9992", "line2": "2 30471  99.0544  69.2452 0082064 267.5978 248.6937 14.13576891963710"}}, "geometry": {"type": "Point", "coordinates": [-142.55418289415297, -73.54644129007069]}}, {"type": "Feature", "properties": {"norad_id": 30472, "name": "FENGYUN 1C DEB", "group": "fengyun-1c-debris", "lat": 55.87519858426088, "lon": -83.4682857949335, "alt_km": 684.8207653528561, "timestamp": "2025-12-08T13:49:32.069332+00:00", "meta": {"OBJECT_NAME": "FENGYUN 1C DEB", "OBJECT_ID": "1999-025AGK", "EPOCH": "2025-12-08T06:56:42.806112", "MEAN_MOTION": 14.53652715, "ECCENTRICITY": 0.00385794, "INCLINATION": 98.6519, "RA_OF_ASC_NODE": 83.2516, "ARG_OF_PERICENTER": 93.2001, "MEAN_ANOMALY": 330.2761, "EPHEMERIS_TYPE": 0, "CLASSIFICATION_TYPE": "U", "NORAD_CAT_ID": 30472, "ELEMENT_SET_NO": 999, "REV_AT_EPOCH": 97976, "BSTAR": 0.0030827307, "MEAN_MOTION_DOT": 0.00012999, "MEAN_MOTION_DDOT": 0}, "tle": {"line1": "1 30472U 99025AGK 25342.28938433  .00012999  00000+0  30827-2 0  9998", "line2": "2 30472  98.6519  83.2516 0038579  93.2001 330.2761 14.53652715979767"}}, "geometry": {"type": "Point", "coordinates": [-83.4682857949335, 55.87519858426088]}}, {"type": "Feature", "properties": {"norad_id": 30474, "name": "FENGYUN 1C DEB", "group": "fengyun-1c-debris", "lat": -56.85306443640323, "lon": -132.6305739490141, "alt_km": 785.6526163329909, "timestamp": "2025-12-08T13:49:32.069343+00:00", "meta": {"OBJECT_NAME": "FENGYUN 1C DEB", "OBJECT_ID": "1999-025AGM", "EPOCH": "2025-12-08T04:31:08.611968", "MEAN_MOTION": 14.37669768, "ECCENTRICITY": 0.00229552, "INCLINATION": 98.9289, "RA_OF_ASC_NODE": 60.8968, "ARG_OF_PERICENTER": 18.3532, "MEAN_ANOMALY": 13.8801, "EPHEMERIS_TYPE": 0, "CLASSIFICATION_TYPE": "U", "NORAD_CAT_ID": 30474, "ELEMENT_SET_NO": 999, "REV_AT_EPOCH": 97328, "BSTAR": 0.0027231254, "MEAN_MOTION_DOT": 8.168e-05, "MEAN_MOTION_DDOT": 0}, "tle": {"line1": "1 30474U 99025AGM 25342.18829412  .00008168  00000+0  27231-2 0  9993", "line2": "2 30474  98.9289  60.8968 0022955  18.3532  13.8801 14.37669768973284"}}, "geometry": {"type": "Point", "coordinates": [-132.6305739490141, -56.85306443640323]}}, {"type": "Feature", "properties": {"norad_id": 30475, "name": "FENGYUN 1C DEB", "group": "fengyun-1c-debris", "lat": -80.99514682802422, "lon": 101.60498671155904, "alt_km": 821.2171200354815, "timestamp": "2025-12-08T13:49:32.069353+00:00", "meta": {"OBJECT_NAME": "FENGYUN 1C DEB", "OBJECT_ID": "1999-025AGN", "EPOCH": "2025-12-08T02:38:14.758656", "MEAN_MOTION": 14.15657591, "ECCENTRICITY": 0.0042205, "INCLINATION": 98.7875, "RA_OF_ASC_NODE": 23.6988, "ARG_OF_PERICENTER": 304.1823, "MEAN_ANOMALY": 113.5612, "EPHEMERIS_TYPE": 0, "CLASSIFICATION_TYPE": "U", "NORAD_CAT_ID": 30475, "ELEMENT_SET_NO": 999, "REV_AT_EPOCH": 96886, "BSTAR": 0.0010657182, "MEAN_MOTION_DOT": 2.063e-05, "MEAN_MOTION_DDOT": 0}, "tle": {"line1": "1 30475U 99025AGN 25342.10989304  .00002063  00000+0  10657-2 0  9995", "line2": "2 30475  98.7875  23.6988 0042205 304.1823 113.5612 14.15657591968865"}}, "geometry": {"type": "Point", "coordinates": [101.60498671155904, -80.99514682802422]}}, {"type": "Feature", "properties": {"norad_id": 30476, "name": "FENGYUN 1C DEB", "group": "fengyun-1c-debris", "lat": -47.595277997421, "lon": 29.770708054723777, "alt_km": 796.8807061670923, "timestamp": "2025-12-08T13:49:32.069365+00:00", "meta": {"OBJECT_NAME": "FENGYUN 1C DEB", "OBJECT_ID": "1999-025AGP", "EPOCH": "2025-12-08T00:49:46.065216", "MEAN_MOTION": 14.20867632, "ECCENTRICITY": 0.00448337, "INCLINATION": 99.1239, "RA_OF_ASC_NODE": 19.0771, "ARG_OF_PERICENTER": 313.3098, "MEAN_ANOMALY": 110.0436, "EPHEMERIS_TYPE": 0, "CLASSIFICATION_TYPE": "U", "NORAD_CAT_ID": 30476, "ELEMENT_SET_NO": 999, "REV_AT_EPOCH": 96778, "BSTAR": 0.0018952857, "MEAN_MOTION_DOT": 4.094e-05, "MEAN_MOTION_DDOT": 0}, "tle": {"line1": "1 30476U 99025AGP 25342.03456094  .00004094  00000+0  18953-2 0  9996", "line2": "2 30476  99.1239  19.0771 0044833 313.3098 110.0436 14.20867632967780"}}, "geometry": {"type": "Point", "coordinates": [29.770708054723777, -47.595277997421]}}, {"type": "Feature", "properties": {"norad_id": 30477, "name": "FENGYUN 1C DEB", "group": "fengyun-1c-debris", "lat": -23.335945049008693, "lon": 70.10561735274392, "alt_km": 955.4158312211648, "timestamp": "2025-12-08T13:49:32.069376+00:00", "meta": {"OBJECT_NAME": "FENGYUN 1C DEB", "OBJECT_ID": "1999-025AGQ", "EPOCH": "2025-12-08T05:00:18.363168", "MEAN_MOTION": 13.2379512, "ECCENTRICITY": 0.04322166, "INCLINATION": 99.4255, "RA_OF_ASC_NODE": 65.663, "ARG_OF_PERICENTER": 287.8793, "MEAN_ANOMALY": 94.2761, "EPHEMERIS_TYPE": 0, "CLASSIFICATION_TYPE": "U", "NORAD_CAT_ID": 30477, "ELEMENT_SET_NO": 999, "REV_AT_EPOCH": 90659, "BSTAR": 0.0042491873, "MEAN_MOTION_DOT": 2.934e-05, "MEAN_MOTION_DDOT": 0}, "tle": {"line1": "1 30477U 99025AGQ 25342.20854587  .00002934  00000+0  42492-2 0  9991", "line2": "2 30477  99.4255  65.6630 0432216 287.8793  94.2761 13.23795120906596"}}, "geometry": {"type": "Point", "coordinates": [70.10561735274392, -23.335945049008693]}}, {"type": "Feature", "properties": {"norad_id": 30480, "name": "FENGYUN 1C DEB", "group": "fengyun-1c-debris", "lat": -41.2581312076654, "lon": 170.30576610221388, "alt_km": 731.916762839769, "timestamp": "2025-12-08T13:49:32.069386+00:00", "meta": {"OBJECT_NAME": "FENGYUN 1C DEB", "OBJECT_ID": "1999-025AGS", "EPOCH": "2025-12-07T23:41:52.062432", "MEAN_MOTION": 14.3358933, "ECCENTRICITY": 0.01661408, "INCLINATION": 98.224, "RA_OF_ASC_NODE": 357.0346, "ARG_OF_PERICENTER": 159.8051, "MEAN_ANOMALY": 263.929, "EPHEMERIS_TYPE": 0, "CLASSIFICATION_TYPE": "U", "NORAD_CAT_ID": 30480, "ELEMENT_SET_NO": 999, "REV_AT_EPOCH": 98600, "BSTAR": 0.00032623081, "MEAN_MOTION_DOT": 1.01e-05, "MEAN_MOTION_DDOT": 0}, "tle": {"line1": "1 30480U 99025AGS 25341.98740813  .00001010  00000+0  32623-3 0  9995", "line2": "2 30480  98.2240 357.0346 0166140 159.8051 263.9290 14.33589330986000"}}, "geometry": {"type": "Point", "coordinates": [170.30576610221388, -41.2581312076654]}}]}